STARLINK-2454           
1 48116U 21027AA  26068.57346489 -.00000342  00000+0  57234-6 0  9996
2 48116  53.1618 165.8028 0001501  80.8170 279.3000 15.30189450272498
2025-313BE              
1 67482U 25313BE  26068.69721505  .00077178  00000+0  26504-2 0  9996
2 67482  97.3989 145.3568 0007208 335.3714  24.7181 15.29801687  7972
